0 COSMOS 2251 DEB
1 33793U 93036AJ  13282.07816569  .00000968  00000-0  47088-3 0  8390
2 33793 073.9883 224.3053 0091011 292.9493 171.5742 14.17478033240342
0 COSMOS 2251 DEB
1 33793U 93036AJ  13284.27562102  .00001114  00000-0  53995-3 0  8405
2 33793 073.9887 220.3795 0090907 288.6015 224.9532 14.17481207240651
0 COSMOS 2251 DEB
1 33793U 93036AJ  13286.52654059  .00001050  00000-0  50967-3 0  8414
2 33793 073.9891 216.3582 0090826 284.1421 191.1914 14.17485965240976
0 COSMOS 2251 DEB
1 33793U 93036AJ  13288.84357351  .00001159  00000-0  56119-3 0  8422
2 33793 073.9890 212.2192 0090780 279.5402 134.8530 14.17494250241306
0 COSMOS 2251 DEB
1 33793U 93036AJ  13291.18426074  .00000876  00000-0  42688-3 0  8434
2 33793 073.9888 208.0376 0090785 274.9108 199.2669 14.17501721241633
0 COSMOS 2251 DEB
1 33793U 93036AJ  13293.24084647  .00000891  00000-0  43400-3 0  8440
2 33793 073.9885 204.3637 0090729 270.8246 253.9933 14.17506054241923
0 COSMOS 2251 DEB
1 33793U 93036AJ  13295.83159240  .00000886  00000-0  43174-3 0  8452
2 33793 073.9883 199.7355 0090632 265.6483 154.6096 14.17510842242291
